STARLINK-1117           
1 44952U 20001AQ  23327.84008229  .00000366  00000+0  43440-4 0  9990
2 44952  53.0555 123.3841 0001407  89.4960 270.6190 15.06394131213991
STARLINK-1124           
1 44953U 20001AR  23327.91667824  .00145006  00000+0  78224-3 0  9999
2 44953  53.0465  80.4352 0002147  12.1188 165.5699 15.79230918  5705
STARLINK-1066           
1 44954U 20001AS  23327.67237621 -.00000294  00000+0 -85266-6 0  9999
2 44954  53.0552 104.1345 0001445 100.8759 259.2392 15.06389706214194
STARLINK-1069           
1 44955U 20001AT  23327.52108648  .00024431  00000+0  10142-3 0  9995
2 44955  53.0404  62.9232 0001685 140.9091 219.2054 15.85672528214743
STARLINK-1070           
1 44956U 20001AU  23328.25002315  .00207182  00000+0  84556-3 0  9997
2 44956  53.0408  32.0199 0006508  32.7287 233.2344 15.85010602215302
STARLINK-1076           
1 44959U 20001AX  23327.65025173  .00000054  00000+0  22489-4 0  9997
2 44959  53.0540 104.2319 0001362 106.1078 254.0061 15.06393734214247
STARLINK-1080           
1 44961U 20001AZ  23327.65762084 -.00000191  00000+0  60742-5 0  9997
2 44961  53.0526 104.1994 0001413  88.0886 272.0265 15.06396430214257
STARLINK-1086           
1 44964U 20001BC  23327.55983981  .00000949  00000+0  98004-5 0  9992
2 44964  53.0506  63.9941 0001374 125.3874 234.7274 15.76727467214799
STARLINK-1088           
1 44966U 20001BE  23327.55399129  .00013798  00000+0  61805-3 0  9992
2 44966  53.0597  85.5749 0003138  73.4001 286.7339 15.21535164214501
STARLINK-1089           
1 44967U 20001BF  23327.66500187 -.00000575  00000+0 -19722-4 0  9996
2 44967  53.0555 104.1673 0001370  80.9905 279.1239 15.06393811214253
STARLINK-1090           
1 44968U 20001BG  23327.66130682  .00000116  00000+0  26651-4 0  9994
2 44968  53.0536 104.1832 0001156  92.1385 267.9736 15.06398520214258
STARLINK-1092           
1 44969U 20001BH  23327.65393976  .00000041  00000+0  21676-4 0  9990
2 44969  53.0549 104.2186 0001316  95.8194 264.2945 15.06393628214247
STARLINK-1093           
1 44970U 20001BJ  23327.69817424  .00000579  00000+0  57776-4 0  9991
2 44970  53.0550 104.0198 0001344  92.0198 268.0945 15.06389548214244
STARLINK-1107           
1 44972U 20001BL  23327.60233696 -.00001784  00000+0 -10091-3 0  9996
2 44972  53.0562 104.4491 0001016 102.7638 257.3465 15.06405122214248
STARLINK-1115           
1 44973U 20001BM  23327.64656277 -.00001677  00000+0 -93677-4 0  9998
2 44973  53.0542 104.2497 0001548 109.8657 250.2499 15.06400577214248
TJS-5                   
1 44978U 20002A   23327.86507830 -.00000336  00000+0  00000+0 0  9991
2 44978   0.0740  50.0417 0004603 157.6467 273.7980  1.00274838 14319
JILIN-1 KUANFU 01       
1 45016U 20003A   23328.16306975  .00006669  00000+0  38694-3 0  9995
2 45016  97.6072  36.9300 0006909  69.2770 290.9201 15.12463462213918
