[{"OBJECT_NAME":"STARLINK-1117","OBJECT_ID":"2020-001AQ","EPOCH":"2023-11-23T20:09:43.109856","MEAN_MOTION":15.06394131,"ECCENTRICITY":0.0001407,"INCLINATION":53.0555,"RA_OF_ASC_NODE":123.3841,"ARG_OF_PERICENTER":89.496,"MEAN_ANOMALY":270.619,"EPHEMERIS_TYPE":0,"CLASSIFICATION_TYPE":"U","NORAD_CAT_ID":44952,"ELEMENT_SET_NO":999,"REV_AT_EPOCH":21399,"BSTAR":4.344e-5,"MEAN_MOTION_DOT":3.66e-6,"MEAN_MOTION_DDOT":0},{"OBJECT_NAME":"STARLINK-1124","OBJECT_ID":"2020-001AR","EPOCH":"2023-11-23T22:00:00.999936","MEAN_MOTION":15.79230918,"ECCENTRICITY":0.0002147,"INCLINATION":53.0465,"RA_OF_ASC_NODE":80.4352,"ARG_OF_PERICENTER":12.1188,"MEAN_ANOMALY":165.5699,"EPHEMERIS_TYPE":0,"CLASSIFICATION_TYPE":"U","NORAD_CAT_ID":44953,"ELEMENT_SET_NO":999,"REV_AT_EPOCH":570,"BSTAR":0.00078224,"MEAN_MOTION_DOT":0.00145006,"MEAN_MOTION_DDOT":0},{"OBJECT_NAME":"STARLINK-1066","OBJECT_ID":"2020-001AS","EPOCH":"2023-11-23T16:08:13.304544","MEAN_MOTION":15.06389706,"ECCENTRICITY":0.0001445,"INCLINATION":53.0552,"RA_OF_ASC_NODE":104.1345,"ARG_OF_PERICENTER":100.8759,"MEAN_ANOMALY":259.2392,"EPHEMERIS_TYPE":0,"CLASSIFICATION_TYPE":"U","NORAD_CAT_ID":44954,"ELEMENT_SET_NO":999,"REV_AT_EPOCH":21419,"BSTAR":-8.5266e-7,"MEAN_MOTION_DOT":-2.94e-6,"MEAN_MOTION_DDOT":0},{"OBJECT_NAME":"STARLINK-1069","OBJECT_ID":"2020-001AT","EPOCH":"2023-11-23T12:30:21.871872","MEAN_MOTION":15.85672528,"ECCENTRICITY":0.0001685,"INCLINATION":53.0404,"RA_OF_ASC_NODE":62.9232,"ARG_OF_PERICENTER":140.9091,"MEAN_ANOMALY":219.2054,"EPHEMERIS_TYPE":0,"CLASSIFICATION_TYPE":"U","NORAD_CAT_ID":44955,"ELEMENT_SET_NO":999,"REV_AT_EPOCH":21474,"BSTAR":0.00010142,"MEAN_MOTION_DOT":0.00024431,"MEAN_MOTION_DDOT":0},{"OBJECT_NAME":"STARLINK-1070","OBJECT_ID":"2020-001AU","EPOCH":"2023-11-24T06:00:02.000160","MEAN_MOTION":15.85010602,"ECCENTRICITY":0.0006508,"INCLINATION":53.0408,"RA_OF_ASC_NODE":32.0199,"ARG_OF_PERICENTER":32.7287,"MEAN_ANOMALY":233.2344,"EPHEMERIS_TYPE":0,"CLASSIFICATION_TYPE":"U","NORAD_CAT_ID":44956,"ELEMENT_SET_NO":999,"REV_AT_EPOCH":21530,"BSTAR":0.00084556,"MEAN_MOTION_DOT":0.00207182,"MEAN_MOTION_DDOT":0},{"OBJECT_NAME":"STARLINK-1076","OBJECT_ID":"2020-001AX","EPOCH":"2023-11-23T15:36:21.749472","MEAN_MOTION":15.06393734,"ECCENTRICITY":0.0001362,"INCLINATION":53.054,"RA_OF_ASC_NODE":104.2319,"ARG_OF_PERICENTER":106.1078,"MEAN_ANOMALY":254.0061,"EPHEMERIS_TYPE":0,"CLASSIFICATION_TYPE":"U","NORAD_CAT_ID":44959,"ELEMENT_SET_NO":999,"REV_AT_EPOCH":21424,"BSTAR":2.2489e-5,"MEAN_MOTION_DOT":5.4e-7,"MEAN_MOTION_DDOT":0},{"OBJECT_NAME":"STARLINK-1080","OBJECT_ID":"2020-001AZ","EPOCH":"2023-11-23T15:46:58.440576","MEAN_MOTION":15.0639643,"ECCENTRICITY":0.0001413,"INCLINATION":53.0526,"RA_OF_ASC_NODE":104.1994,"ARG_OF_PERICENTER":88.0886,"MEAN_ANOMALY":272.0265,"EPHEMERIS_TYPE":0,"CLASSIFICATION_TYPE":"U","NORAD_CAT_ID":44961,"ELEMENT_SET_NO":999,"REV_AT_EPOCH":21425,"BSTAR":6.0742e-6,"MEAN_MOTION_DOT":-1.91e-6,"MEAN_MOTION_DDOT":0},{"OBJECT_NAME":"STARLINK-1086","OBJECT_ID":"2020-001BC","EPOCH":"2023-11-23T13:26:10.159584","MEAN_MOTION":15.76727467,"ECCENTRICITY":0.0001374,"INCLINATION":53.0506,"RA_OF_ASC_NODE":63.9941,"ARG_OF_PERICENTER":125.3874,"MEAN_ANOMALY":234.7274,"EPHEMERIS_TYPE":0,"CLASSIFICATION_TYPE":"U","NORAD_CAT_ID":44964,"ELEMENT_SET_NO":999,"REV_AT_EPOCH":21479,"BSTAR":9.8004e-6,"MEAN_MOTION_DOT":9.49e-6,"MEAN_MOTION_DDOT":0},{"OBJECT_NAME":"STARLINK-1088","OBJECT_ID":"2020-001BE","EPOCH":"2023-11-23T13:17:44.847456","MEAN_MOTION":15.21535164,"ECCENTRICITY":0.0003138,"INCLINATION":53.0597,"RA_OF_ASC_NODE":85.5749,"ARG_OF_PERICENTER":73.4001,"MEAN_ANOMALY":286.7339,"EPHEMERIS_TYPE":0,"CLASSIFICATION_TYPE":"U","NORAD_CAT_ID":44966,"ELEMENT_SET_NO":999,"REV_AT_EPOCH":21450,"BSTAR":0.00061805,"MEAN_MOTION_DOT":0.00013798,"MEAN_MOTION_DDOT":0},{"OBJECT_NAME":"STARLINK-1089","OBJECT_ID":"2020-001BF","EPOCH":"2023-11-23T15:57:36.161568","MEAN_MOTION":15.06393811,"ECCENTRICITY":0.000137,"INCLINATION":53.0555,"RA_OF_ASC_NODE":104.1673,"ARG_OF_PERICENTER":80.9905,"MEAN_ANOMALY":279.1239,"EPHEMERIS_TYPE":0,"CLASSIFICATION_TYPE":"U","NORAD_CAT_ID":44967,"ELEMENT_SET_NO":999,"REV_AT_EPOCH":21425,"BSTAR":-1.9722e-5,"MEAN_MOTION_DOT":-5.75e-6,"MEAN_MOTION_DDOT":0},{"OBJECT_NAME":"STARLINK-1090","OBJECT_ID":"2020-001BG","EPOCH":"2023-11-23T15:52:16.909248","MEAN_MOTION":15.0639852,"ECCENTRICITY":0.0001156,"INCLINATION":53.0536,"RA_OF_ASC_NODE":104.1832,"ARG_OF_PERICENTER":92.1385,"MEAN_ANOMALY":267.9736,"EPHEMERIS_TYPE":0,"CLASSIFICATION_TYPE":"U","NORAD_CAT_ID":44968,"ELEMENT_SET_NO":999,"REV_AT_EPOCH":21425,"BSTAR":2.6651e-5,"MEAN_MOTION_DOT":1.16e-6,"MEAN_MOTION_DDOT":0},{"OBJECT_NAME":"STARLINK-1092","OBJECT_ID":"2020-001BH","EPOCH":"2023-11-23T15:41:40.395264","MEAN_MOTION":15.06393628,"ECCENTRICITY":0.0001316,"INCLINATION":53.0549,"RA_OF_ASC_NODE":104.2186,"ARG_OF_PERICENTER":95.8194,"MEAN_ANOMALY":264.2945,"EPHEMERIS_TYPE":0,"CLASSIFICATION_TYPE":"U","NORAD_CAT_ID":44969,"ELEMENT_SET_NO":999,"REV_AT_EPOCH":21424,"BSTAR":2.1676e-5,"MEAN_MOTION_DOT":4.1e-7,"MEAN_MOTION_DDOT":0},{"OBJECT_NAME":"STARLINK-1093","OBJECT_ID":"2020-001BJ","EPOCH":"2023-11-23T16:45:22.254336","MEAN_MOTION":15.06389548,"ECCENTRICITY":0.0001344,"INCLINATION":53.055,"RA_OF_ASC_NODE":104.0198,"ARG_OF_PERICENTER":92.0198,"MEAN_ANOMALY":268.0945,"EPHEMERIS_TYPE":0,"CLASSIFICATION_TYPE":"U","NORAD_CAT_ID":44970,"ELEMENT_SET_NO":999,"REV_AT_EPOCH":21424,"BSTAR":5.7776e-5,"MEAN_MOTION_DOT":5.79e-6,"MEAN_MOTION_DDOT":0},{"OBJECT_NAME":"STARLINK-1107","OBJECT_ID":"2020-001BL","EPOCH":"2023-11-23T14:27:21.913344","MEAN_MOTION":15.06405122,"ECCENTRICITY":0.0001016,"INCLINATION":53.0562,"RA_OF_ASC_NODE":104.4491,"ARG_OF_PERICENTER":102.7638,"MEAN_ANOMALY":257.3465,"EPHEMERIS_TYPE":0,"CLASSIFICATION_TYPE":"U","NORAD_CAT_ID":44972,"ELEMENT_SET_NO":999,"REV_AT_EPOCH":21424,"BSTAR":-0.00010091,"MEAN_MOTION_DOT":-1.784e-5,"MEAN_MOTION_DDOT":0},{"OBJECT_NAME":"STARLINK-1115","OBJECT_ID":"2020-001BM","EPOCH":"2023-11-23T15:31:03.023328","MEAN_MOTION":15.06400577,"ECCENTRICITY":0.0001548,"INCLINATION":53.0542,"RA_OF_ASC_NODE":104.2497,"ARG_OF_PERICENTER":109.8657,"MEAN_ANOMALY":250.2499,"EPHEMERIS_TYPE":0,"CLASSIFICATION_TYPE":"U","NORAD_CAT_ID":44973,"ELEMENT_SET_NO":999,"REV_AT_EPOCH":21424,"BSTAR":-9.3677e-5,"MEAN_MOTION_DOT":-1.677e-5,"MEAN_MOTION_DDOT":0},{"OBJECT_NAME":"TJS-5","OBJECT_ID":"2020-002A","EPOCH":"2023-11-23T20:45:42.765120","MEAN_MOTION":1.00274838,"ECCENTRICITY":0.0004603,"INCLINATION":0.074,"RA_OF_ASC_NODE":50.0417,"ARG_OF_PERICENTER":157.6467,"MEAN_ANOMALY":273.798,"EPHEMERIS_TYPE":0,"CLASSIFICATION_TYPE":"U","NORAD_CAT_ID":44978,"ELEMENT_SET_NO":999,"REV_AT_EPOCH":1431,"BSTAR":0,"MEAN_MOTION_DOT":-3.36e-6,"MEAN_MOTION_DDOT":0},{"OBJECT_NAME":"JILIN-1 KUANFU 01","OBJECT_ID":"2020-003A","EPOCH":"2023-11-24T03:54:49.226400","MEAN_MOTION":15.12463462,"ECCENTRICITY":0.0006909,"INCLINATION":97.6072,"RA_OF_ASC_NODE":36.93,"ARG_OF_PERICENTER":69.277,"MEAN_ANOMALY":290.9201,"EPHEMERIS_TYPE":0,"CLASSIFICATION_TYPE":"U","NORAD_CAT_ID":45016,"ELEMENT_SET_NO":999,"REV_AT_EPOCH":21391,"BSTAR":0.00038694,"MEAN_MOTION_DOT":6.669e-5,"MEAN_MOTION_DDOT":0}]
